start=new Date('2022-11-11T00:00:00.000Z').valueOf();
sats=[{"RCS_SIZE":"LARGE","SITE":"AFETR","GP_ID":"217367467","MEAN_MOTION_DDOT":"0.0000000000000","MEAN_MOTION_DOT":"-0.00001510","OBJECT_ID":"2020-012BH","OBJECT_NAME":"STARLINK-1238","LAUNCH_DATE":"2020-02-17","CLASSIFICATION_TYPE":"U","REV_AT_EPOCH":"15197","FILE":"3650843","OBJECT_TYPE":"PAYLOAD","BSTAR":"-0.00008256500000","ECCENTRICITY":"0.00013820","APOAPSIS":"548.225","ARG_OF_PERICENTER":"77.4157","COUNTRY_CODE":"US","MEAN_MOTION":"15.06382286","ELEMENT_SET_NO":"999","TIME_SYSTEM":"UTC","PERIAPSIS":"546.311","DECAY_DATE":null,"RA_OF_ASC_NODE":"81.0269","MEAN_ANOMALY":"282.6987","PERIOD":"95.593","MEAN_ELEMENT_THEORY":"SGP4","REF_FRAME":"TEME","EPOCH":"2022-11-10T16:12:53.224128","TLE_LINE2":"2 45233  53.0548  81.0269 0001382  77.4157 282.6987 15.06382286151971","EPHEMERIS_TYPE":"0","NORAD_CAT_ID":"45233","TLE_LINE1":"1 45233U 20012BH  22314.67561602 -.00001510  00000-0 -82565-4 0  9996","INCLINATION":"53.0548","SEMIMAJOR_AXIS":"6925.403","CENTER_NAME":"EARTH"},{"REF_FRAME":"TEME","PERIOD":"95.592","MEAN_ELEMENT_THEORY":"SGP4","EPOCH":"2022-11-10T17:08:36.378816","MEAN_ANOMALY":"242.8416","EPHEMERIS_TYPE":"0","CENTER_NAME":"EARTH","SEMIMAJOR_AXIS":"6925.328","INCLINATION":"53.0541","NORAD_CAT_ID":"45234","TLE_LINE1":"1 45234U 20012BJ  22314.71430994 -.00000004  00000-0  18608-4 0  9994","TLE_LINE2":"2 45234  53.0541 100.8684 0001465 117.2723 242.8416 15.06406589151686","DECAY_DATE":null,"TIME_SYSTEM":"UTC","ELEMENT_SET_NO":"999","PERIAPSIS":"546.179","RA_OF_ASC_NODE":"100.8684","COUNTRY_CODE":"US","ARG_OF_PERICENTER":"117.2723","APOAPSIS":"548.208","ECCENTRICITY":"0.00014650","MEAN_MOTION":"15.06406589","GP_ID":"217368206","OBJECT_ID":"2020-012BJ","MEAN_MOTION_DDOT":"0.0000000000000","MEAN_MOTION_DOT":"-0.00000004","LAUNCH_DATE":"2020-02-17","OBJECT_NAME":"STARLINK-1243","RCS_SIZE":"LARGE","SITE":"AFETR","FILE":"3650843","BSTAR":"0.00001860800000","OBJECT_TYPE":"PAYLOAD","REV_AT_EPOCH":"15168","CLASSIFICATION_TYPE":"U"},{"MEAN_MOTION":"15.06396000","ECCENTRICITY":"0.00015000","APOAPSIS":"548.265","ARG_OF_PERICENTER":"70.5806","COUNTRY_CODE":"US","CLASSIFICATION_TYPE":"U","REV_AT_EPOCH":"15173","FILE":"3650843","OBJECT_TYPE":"PAYLOAD","BSTAR":"-0.00009121300000","RCS_SIZE":"LARGE","SITE":"AFETR","GP_ID":"217366970","MEAN_MOTION_DDOT":"0.0000000000000","OBJECT_ID":"2020-012BK","MEAN_MOTION_DOT":"-0.00001640","OBJECT_NAME":"STARLINK-1246","LAUNCH_DATE":"2020-02-17","TLE_LINE2":"2 45235  53.0562 100.9214 0001500  70.5806 289.5345 15.06396000151734","EPHEMERIS_TYPE":"0","TLE_LINE1":"1 45235U 20012BK  22314.69956396 -.00001640  00000-0 -91213-4 0  9992","NORAD_CAT_ID":"45235","SEMIMAJOR_AXIS":"6925.361","INCLINATION":"53.0562","CENTER_NAME":"EARTH","MEAN_ANOMALY":"289.5345","PERIOD":"95.592","MEAN_ELEMENT_THEORY":"SGP4","REF_FRAME":"TEME","EPOCH":"2022-11-10T16:47:22.326144","RA_OF_ASC_NODE":"100.9214","ELEMENT_SET_NO":"999","TIME_SYSTEM":"UTC","PERIAPSIS":"546.187","DECAY_DATE":null},{"PERIAPSIS":"546.256","ELEMENT_SET_NO":"999","TIME_SYSTEM":"UTC","DECAY_DATE":null,"RA_OF_ASC_NODE":"60.4154","MEAN_ANOMALY":"283.4486","REF_FRAME":"TEME","PERIOD":"95.593","MEAN_ELEMENT_THEORY":"SGP4","EPOCH":"2022-11-10T19:31:55.137504","TLE_LINE2":"2 45236  53.0548  60.4154 0001414  76.6660 283.4486 15.06393023152283","TLE_LINE1":"1 45236U 20012BL  22314.81383261  .00022340  00000-0  15142-2 0  9995","NORAD_CAT_ID":"45236","INCLINATION":"53.0548","SEMIMAJOR_AXIS":"6925.370","CENTER_NAME":"EARTH","EPHEMERIS_TYPE":"0","SITE":"AFETR","RCS_SIZE":"LARGE","OBJECT_NAME":"STARLINK-1247","LAUNCH_DATE":"2020-02-17","MEAN_MOTION_DDOT":"0.0000000000000","GP_ID":"217367220","MEAN_MOTION_DOT":"0.00022340","OBJECT_ID":"2020-012BL","CLASSIFICATION_TYPE":"U","REV_AT_EPOCH":"15228","OBJECT_TYPE":"PAYLOAD","BSTAR":"0.00151420000000","FILE":"3650843","ECCENTRICITY":"0.00014140","APOAPSIS":"548.214","ARG_OF_PERICENTER":"76.6660","COUNTRY_CODE":"US","MEAN_MOTION":"15.06393023"},{"SITE":"AFETR","RCS_SIZE":"LARGE","OBJECT_NAME":"STARLINK-1270","LAUNCH_DATE":"2020-02-17","MEAN_MOTION_DDOT":"0.0000000000000","GP_ID":"217367965","MEAN_MOTION_DOT":"-0.00000288","OBJECT_ID":"2020-012BM","CLASSIFICATION_TYPE":"U","REV_AT_EPOCH":"15227","OBJECT_TYPE":"PAYLOAD","BSTAR":"-0.00000045405000","FILE":"3650843","ECCENTRICITY":"0.00013830","APOAPSIS":"548.188","ARG_OF_PERICENTER":"73.3646","COUNTRY_CODE":"US","MEAN_MOTION":"15.06394443","PERIAPSIS":"546.273","ELEMENT_SET_NO":"999","TIME_SYSTEM":"UTC","DECAY_DATE":null,"RA_OF_ASC_NODE":"60.8967","MEAN_ANOMALY":"286.7495","PERIOD":"95.592","REF_FRAME":"TEME","EPOCH":"2022-11-10T16:52:40.415520","MEAN_ELEMENT_THEORY":"SGP4","TLE_LINE2":"2 45237  53.0537  60.8967 0001383  73.3646 286.7495 15.06394443152273","NORAD_CAT_ID":"45237","TLE_LINE1":"1 45237U 20012BM  22314.70324555 -.00000288  00000-0 -45405-6 0  9993","INCLINATION":"53.0537","SEMIMAJOR_AXIS":"6925.366","CENTER_NAME":"EARTH","EPHEMERIS_TYPE":"0"},{"RA_OF_ASC_NODE":"190.2056","DECAY_DATE":null,"ELEMENT_SET_NO":"999","TIME_SYSTEM":"UTC","PERIAPSIS":"545.931","EPHEMERIS_TYPE":"0","TLE_LINE1":"1 45360U 20019A   22314.86082107  .00004597  00000-0  32736-3 0  9993","NORAD_CAT_ID":"45360","INCLINATION":"53.0519","SEMIMAJOR_AXIS":"6925.366","CENTER_NAME":"EARTH","TLE_LINE2":"2 45360  53.0519 190.2056 0001877  53.3613 306.7548 15.06394338147030","EPOCH":"2022-11-10T20:39:34.940448","PERIOD":"95.592","REF_FRAME":"TEME","MEAN_ELEMENT_THEORY":"SGP4","MEAN_ANOMALY":"306.7548","FILE":"3650843","OBJECT_TYPE":"PAYLOAD","BSTAR":"0.00032736000000","CLASSIFICATION_TYPE":"U","REV_AT_EPOCH":"14703","OBJECT_ID":"2020-019A","GP_ID":"217367480","MEAN_MOTION_DDOT":"0.0000000000000","MEAN_MOTION_DOT":"0.00004597","OBJECT_NAME":"STARLINK-1279","LAUNCH_DATE":"2020-03-18","RCS_SIZE":"LARGE","SITE":"AFETR","MEAN_MOTION":"15.06394338","ARG_OF_PERICENTER":"53.3613","COUNTRY_CODE":"US","ECCENTRICITY":"0.00018770","APOAPSIS":"548.531"},{"RA_OF_ASC_NODE":"200.2608","DECAY_DATE":null,"ELEMENT_SET_NO":"999","TIME_SYSTEM":"UTC","PERIAPSIS":"546.331","EPHEMERIS_TYPE":"0","TLE_LINE1":"1 45361U 20019B   22314.84884636  .00000598  00000-0  59086-4 0  9994","NORAD_CAT_ID":"45361","INCLINATION":"53.0531","SEMIMAJOR_AXIS":"6925.386","CENTER_NAME":"EARTH","TLE_LINE2":"2 45361  53.0531 200.2608 0001329  67.0970 293.0159 15.06387650146900","PERIOD":"95.593","REF_FRAME":"TEME","EPOCH":"2022-11-10T20:22:20.325504","MEAN_ELEMENT_THEORY":"SGP4","MEAN_ANOMALY":"293.0159","FILE":"3650843","OBJECT_TYPE":"PAYLOAD","BSTAR":"0.00005908600000","CLASSIFICATION_TYPE":"U","REV_AT_EPOCH":"14690","GP_ID":"217368219","MEAN_MOTION_DDOT":"0.0000000000000","MEAN_MOTION_DOT":"0.00000598","OBJECT_ID":"2020-019B","OBJECT_NAME":"STARLINK-1301","LAUNCH_DATE":"2020-03-18","RCS_SIZE":"LARGE","SITE":"AFETR","MEAN_MOTION":"15.06387650","ARG_OF_PERICENTER":"67.0970","COUNTRY_CODE":"US","ECCENTRICITY":"0.00013290","APOAPSIS":"548.172"},{"PERIAPSIS":"546.146","ELEMENT_SET_NO":"999","TIME_SYSTEM":"UTC","DECAY_DATE":null,"RA_OF_ASC_NODE":"220.3554","MEAN_ANOMALY":"294.1893","EPOCH":"2022-11-10T19:53:09.711168","PERIOD":"95.594","MEAN_ELEMENT_THEORY":"SGP4","REF_FRAME":"TEME","TLE_LINE2":"2 45362  53.0553 220.3554 0001687  65.9272 294.1893 15.06367246146611","TLE_LINE1":"1 45362U 20019C   22314.82858462  .00000731  00000-0  68021-4 0  9999","NORAD_CAT_ID":"45362","INCLINATION":"53.0553","SEMIMAJOR_AXIS":"6925.449","CENTER_NAME":"EARTH","EPHEMERIS_TYPE":"0","SITE":"AFETR","RCS_SIZE":"LARGE","OBJECT_NAME":"STARLINK-1306","LAUNCH_DATE":"2020-03-18","GP_ID":"217366983","MEAN_MOTION_DDOT":"0.0000000000000","MEAN_MOTION_DOT":"0.00000731","OBJECT_ID":"2020-019C","CLASSIFICATION_TYPE":"U","REV_AT_EPOCH":"14661","OBJECT_TYPE":"PAYLOAD","BSTAR":"0.00006802100000","FILE":"3650843","ECCENTRICITY":"0.00016870","APOAPSIS":"548.482","ARG_OF_PERICENTER":"65.9272","COUNTRY_CODE":"US","MEAN_MOTION":"15.06367246"},{"APOAPSIS":"548.495","ECCENTRICITY":"0.00018110","COUNTRY_CODE":"US","ARG_OF_PERICENTER":"63.0198","MEAN_MOTION":"15.06391152","RCS_SIZE":"LARGE","SITE":"AFETR","GP_ID":"217367233","MEAN_MOTION_DDOT":"0.0000000000000","MEAN_MOTION_DOT":"-0.00001330","OBJECT_ID":"2020-019E","LAUNCH_DATE":"2020-03-18","OBJECT_NAME":"STARLINK-1313","REV_AT_EPOCH":"14703","CLASSIFICATION_TYPE":"U","FILE":"3650843","BSTAR":"-0.00007044400000","OBJECT_TYPE":"PAYLOAD","MEAN_ANOMALY":"297.0975","PERIOD":"95.593","MEAN_ELEMENT_THEORY":"SGP4","EPOCH":"2022-11-10T20:34:17.277024","REF_FRAME":"TEME","TLE_LINE2":"2 45364  53.0539 190.2171 0001811  63.0198 297.0975 15.06391152147035","EPHEMERIS_TYPE":"0","INCLINATION":"53.0539","SEMIMAJOR_AXIS":"6925.376","CENTER_NAME":"EARTH","NORAD_CAT_ID":"45364","TLE_LINE1":"1 45364U 20019E   22314.85714441 -.00001330  00000-0 -70444-4 0  9992","TIME_SYSTEM":"UTC","ELEMENT_SET_NO":"999","PERIAPSIS":"545.986","DECAY_DATE":null,"RA_OF_ASC_NODE":"190.2171"},{"MEAN_MOTION":"15.07430414","ECCENTRICITY":"0.00026230","APOAPSIS":"545.873","ARG_OF_PERICENTER":"112.8115","COUNTRY_CODE":"US","CLASSIFICATION_TYPE":"U","REV_AT_EPOCH":"14684","OBJECT_TYPE":"PAYLOAD","BSTAR":"0.00120590000000","FILE":"3650843","SITE":"AFETR","RCS_SIZE":"LARGE","OBJECT_NAME":"STARLINK-1317","LAUNCH_DATE":"2020-03-18","GP_ID":"217367978","OBJECT_ID":"2020-019F","MEAN_MOTION_DDOT":"0.0000000000000","MEAN_MOTION_DOT":"0.00018235","TLE_LINE2":"2 45365  52.9984 199.9357 0002623 112.8115 247.3151 15.07430414146842","NORAD_CAT_ID":"45365","TLE_LINE1":"1 45365U 20019F   22314.84245075  .00018235  00000-0  12059-2 0  9990","SEMIMAJOR_AXIS":"6922.192","CENTER_NAME":"EARTH","INCLINATION":"52.9984","EPHEMERIS_TYPE":"0","MEAN_ANOMALY":"247.3151","MEAN_ELEMENT_THEORY":"SGP4","PERIOD":"95.527","REF_FRAME":"TEME","EPOCH":"2022-11-10T20:13:07.744800","RA_OF_ASC_NODE":"199.9357","PERIAPSIS":"542.242","ELEMENT_SET_NO":"999","TIME_SYSTEM":"UTC","DECAY_DATE":null}];
